NORAD_CAT_ID,OBJECT_NAME,OBJECT_TYPE,EPOCH,MEAN_MOTION,ECCENTRICITY,INCLINATION,RA_OF_ASC_NODE,ARG_OF_PERICENTER,MEAN_ANOMALY,BSTAR,MEAN_MOTION_DOT,MEAN_MOTION_DDOT,TLE_LINE0,TLE_LINE1,TLE_LINE2,SEMIMAJOR_AXIS,PERIOD,APOGEE,PERIGEE,DECAYED
49149.0,STARLINK-3053,PAYLOAD,2021-10-22 04:00:00,15.69768254,0.0003909,70.0001,19.9334,286.7214,85.2096,0.00061379,0.00073772,0.0,0 STARLINK-3053,1 49149U 21082V   21295.16667824  .00073772  00000-0  61379-3 0  9994,2 49149  70.0001  19.9334 0003909 286.7214  85.2096 15.69768254  7287,6737.696999999999,91.733,362.196,356.92800000000005,0.0
49149.0,STARLINK-3053,PAYLOAD,2021-10-22 12:00:00,15.69830816,0.0003959,70.0001,18.9963,291.394,163.7232,-0.00076868,-0.00091304,0.0,0 STARLINK-3053,1 49149U 21082V   21295.50001157 -.00091304  00000-0 -76868-3 0  9995,2 49149  70.0001  18.9963 0003959 291.3940 163.7232 15.69830816  7331,6737.518,91.73,362.05,356.716,0.0
49149.0,STARLINK-3053,PAYLOAD,2021-10-22 14:00:01,15.69791949,0.0003927,70.0002,18.7619,293.726,272.2011,-0.00025705,-0.00030843,0.0,0 STARLINK-3053,1 49149U 21082V   21295.58334491 -.00030843  00000-0 -25705-3 0  9998,2 49149  70.0002  18.7619 0003927 293.7260 272.2011 15.69791949  3671,6737.629,91.732,362.14,356.848,0.0
49149.0,STARLINK-3053,PAYLOAD,2021-10-22 20:00:01,15.69786789,0.000378,70.0,18.0593,293.812,244.4812,-0.000372,-0.00044459,0.0,0 STARLINK-3053,1 49149U 21082V   21295.83334491 -.00044459  00000-0 -37200-3 0  9997,2 49149  70.0000  18.0593 0003780 293.8120 244.4812 15.69786789  7384,6737.644,91.732,362.056,356.962,0.0
49149.0,STARLINK-3053,PAYLOAD,2021-10-22 22:00:01,15.69777016,0.000374,70.0001,17.8249,292.3208,356.8291,-0.00025383,-0.00030441,0.0,0 STARLINK-3053,1 49149U 21082V   21295.91668981 -.00030441  00000-0 -25383-3 0  9995,2 49149  70.0001  17.8249 0003740 292.3208 356.8291 15.69777016  3666,6737.672,91.733,362.057,357.017,0.0
49149.0,STARLINK-3053,PAYLOAD,2021-10-23 04:00:00,15.69764105,0.0003757,70.0002,17.1224,288.043,333.4068,0.0003427,0.00040926,0.0,0 STARLINK-3053,1 49149U 21082V   21296.16667824  .00040926  00000-0  34270-3 0  9990,2 49149  70.0002  17.1224 0003757 288.0430 333.4068 15.69764105  7448,6737.709,91.734,362.105,357.043,0.0
49149.0,STARLINK-3053,PAYLOAD,2021-10-23 06:00:00,15.69812779,0.0003816,70.0004,16.8883,288.6184,83.6073,-0.00048501,-0.00057871,0.0,0 STARLINK-3053,1 49149U 21082V   21296.25001157 -.00057871  00000-0 -48501-3 0  9992,2 49149  70.0004  16.8883 0003816 288.6184  83.6073 15.69812779  3688,6737.57,91.731,362.006,356.86400000000015,0.0
49149.0,STARLINK-3053,PAYLOAD,2021-10-23 12:00:02,15.69762667,0.0004044,70.0002,16.1855,291.3507,53.3349,-0.00046413,-0.00055294,0.0,0 STARLINK-3053,1 49149U 21082V   21296.50002315 -.00055294  00000-0 -46413-3 0  9994,2 49149  70.0002  16.1855 0004044 291.3507  53.3349 15.69762667  7495,6737.7130000000025,91.734,362.30300000000005,356.853,0.0
49149.0,STARLINK-3053,PAYLOAD,2021-10-23 20:00:01,15.69754717,0.0004174,69.9997,15.2485,291.5466,136.1839,-0.00032113,-0.00038389,0.0,0 STARLINK-3053,1 49149U 21082V   21296.83334491 -.00038389  00000-0 -32113-3 0  9991,2 49149  69.9997  15.2485 0004174 291.5466 136.1839 15.69754717  7541,6737.736,91.734,362.413,356.788,0.0
49149.0,STARLINK-3053,PAYLOAD,2021-10-23 22:00:00,15.69745739,0.0004136,69.9998,15.0141,290.1615,248.351,-0.00020809,-0.0002498,0.0,0 STARLINK-3053,1 49149U 21082V   21296.91667824 -.00024980  00000-0 -20809-3 0  9990,2 49149  69.9998  15.0141 0004136 290.1615 248.3510 15.69745739  3685,6737.761,91.735,362.413,356.84,0.0
49149.0,STARLINK-3053,PAYLOAD,2021-10-24 04:00:00,15.69716869,0.0004085,69.9992,14.3099,286.2993,224.5691,0.00050817,0.00060819,0.0,0 STARLINK-3053,1 49149U 21082V   21297.16667824  .00060819  00000-0  50817-3 0  9999,2 49149  69.9992  14.3099 0004085 286.2993 224.5691 15.69716869  7593,6737.844,91.736,362.462,356.957,0.0
49149.0,STARLINK-3053,PAYLOAD,2021-10-24 14:00:01,15.69732156,0.0004224,69.9998,13.1401,292.4364,52.3375,0.00043858,0.00052443,0.0,0 STARLINK-3053,1 49149U 21082V   21297.58334491  .00052443  00000-0  43858-3 0  9997,2 49149  69.9998  13.1401 0004224 292.4364  52.3375 15.69732156  3688,6737.8,91.735,362.511,356.819,0.0
49149.0,STARLINK-3053,PAYLOAD,2021-10-24 20:00:01,15.69789105,0.0004173,69.9996,12.4372,291.8124,25.3711,-0.00030317,-0.00036314,0.0,0 STARLINK-3053,1 49149U 21082V   21297.83335648 -.00036314  00000-0 -30317-3 0  9997,2 49149  69.9996  12.4372 0004173 291.8124  25.3711 15.69789105  7702,6737.637,91.732,362.314,356.691,0.0
49149.0,STARLINK-3053,PAYLOAD,2021-10-24 22:00:00,15.69774069,0.0004133,69.9997,12.2032,290.2531,137.6592,-6.2487e-05,-7.674e-05,0.0,0 STARLINK-3053,1 49149U 21082V   21297.91667824 -.00007674  00000-0 -62487-4 0  9991,2 49149  69.9997  12.2032 0004133 290.2531 137.6592 15.69774069  3708,6737.68,91.733,362.33,356.761,0.0
49149.0,STARLINK-3053,PAYLOAD,2021-10-25 06:00:02,15.69830454,0.0003916,70.0003,11.2663,288.2372,222.8818,-0.0010542,-0.00124644,0.0,0 STARLINK-3053,1 49149U 21082V   21298.25002315 -.00124644  00000-0 -10542-2 0  9997,2 49149  70.0003  11.2663 0003916 288.2372 222.8818 15.69830454  3682,6737.519,91.73,362.022,356.746,0.0
49149.0,STARLINK-3053,PAYLOAD,2021-10-26 04:00:01,15.69695619,0.0003746,69.9997,8.6893,288.723,0.9408,0.00044279,0.00052866,0.0,0 STARLINK-3053,1 49149U 21082V   21299.16668981  .00052866  00000-0  44279-3 0  9994,2 49149  69.9997   8.6893 0003746 288.7230   0.9408 15.69695619  7917,6737.905,91.738,362.294,357.246,0.0
49149.0,STARLINK-3053,PAYLOAD,2021-10-26 14:00:04,15.69703591,0.0003894,69.9996,7.518,295.572,188.09,0.00053989,0.0006462,0.0,0 STARLINK-3053,1 49149U 21082V   21299.58337963  .00064620  00000-0  53989-3 0  9992,2 49149  69.9996   7.5180 0003894 295.5720 188.0900 15.69703591  3669,6737.882,91.737,362.371,357.12300000000016,0.0
49149.0,STARLINK-3053,PAYLOAD,2021-10-26 20:00:01,15.69762603,0.0003831,69.9994,6.8152,294.4147,161.3691,-0.00025021,-0.00029994,0.0,0 STARLINK-3053,1 49149U 21082V   21299.83334491 -.00029994  00000-0 -25021-3 0  9996,2 49149  69.9994   6.8152 0003831 294.4147 161.3691 15.69762603  8014,6737.7130000000025,91.734,362.159,356.997,0.0
49149.0,STARLINK-3053,PAYLOAD,2021-10-27 04:00:00,15.69750699,0.0003713,69.9999,5.8783,289.5632,249.3451,0.0004367,0.00052251,0.0,0 STARLINK-3053,1 49149U 21082V   21300.16667824  .00052251  00000-0  43670-3 0  9994,2 49149  69.9999   5.8783 0003713 289.5632 249.3451 15.69750699  8069,6737.746999999999,91.734,362.114,357.111,0.0
49149.0,STARLINK-3053,PAYLOAD,2021-10-27 12:00:00,15.69787136,0.0003867,70.0,4.9412,295.1364,326.9249,-0.00030812,-0.00036895,0.0,0 STARLINK-3053,1 49149U 21082V   21300.50001157 -.00036895  00000-0 -30812-3 0  9995,2 49149  70.0000   4.9412 0003867 295.1364 326.9249 15.69787136  8129,6737.643,91.732,362.11300000000006,356.903,0.0
49149.0,STARLINK-3053,PAYLOAD,2021-10-27 14:00:01,15.69786149,0.0003886,69.9999,4.7068,296.1267,76.7258,-0.00040295,-0.00048119,0.0,0 STARLINK-3053,1 49149U 21082V   21300.58334491 -.00048119  00000-0 -40295-3 0  9991,2 49149  69.9999   4.7068 0003886 296.1267  76.7258 15.69786149  3670,6737.646,91.732,362.129,356.89300000000014,0.0
49149.0,STARLINK-3053,PAYLOAD,2021-10-28 04:00:01,15.69748989,0.0003578,69.9998,3.0671,290.9761,137.4352,0.00035288,0.00042126,0.0,0 STARLINK-3053,1 49149U 21082V   21301.16668981  .00042126  00000-0  35288-3 0  9996,2 49149  69.9998   3.0671 0003578 290.9761 137.4352 15.69748989  8226,6737.752,91.734,362.028,357.206,0.0
49149.0,STARLINK-3053,PAYLOAD,2021-10-28 12:00:02,15.69766176,0.0003821,69.9995,2.1301,296.1398,215.4149,5.5098e-06,4.46e-06,0.0,0 STARLINK-3053,1 49149U 21082V   21301.50002315  .00000446  00000-0  55098-5 0  9999,2 49149  69.9995   2.1301 0003821 296.1398 215.4149 15.69766176  8272,6737.703,91.733,362.142,356.994,0.0
49149.0,STARLINK-3053,PAYLOAD,2021-10-28 14:00:01,15.69774316,0.000389,69.9996,1.8957,296.7715,325.569,-0.00018331,-0.00022063,0.0,0 STARLINK-3053,1 49149U 21082V   21301.58335648 -.00022063  00000-0 -18331-3 0  9993,2 49149  69.9996   1.8957 0003890 296.7715 325.5690 15.69774316  3657,6737.68,91.733,362.166,356.9240000000001,0.0
49149.0,STARLINK-3053,PAYLOAD,2021-10-28 22:00:00,15.69714236,0.0003892,69.9997,0.9586,292.4195,53.0176,0.00028802,0.00034264,0.0,0 STARLINK-3053,1 49149U 21082V   21301.91667824  .00034264  00000-0  28802-3 0  9992,2 49149  69.9997   0.9586 0003892 292.4195  53.0176 15.69714236  3661,6737.852,91.736,362.339,357.094,0.0
49149.0,STARLINK-3053,PAYLOAD,2021-10-29 04:00:00,15.69748597,0.0003725,70.0002,0.2472,296.0192,21.5079,-1.7298e-05,-2.277e-05,0.0,0 STARLINK-3053,1 49149U 21082V   21302.16667824 -.00002277  00000-0 -17298-4 0  9999,2 49149  70.0002   0.2472 0003725 296.0192  21.5079 15.69748597  8383,6737.753000000002,91.734,362.128,357.108,0.0
49149.0,STARLINK-3053,PAYLOAD,2021-10-29 14:00:01,15.69766296,0.0004197,70.0001,359.0845,294.9301,216.811,-0.00011078,-0.00013428,0.0,0 STARLINK-3053,1 49149U 21082V   21302.58335648 -.00013428  00000-0 -11078-3 0  9990,2 49149  70.0001 359.0845 0004197 294.9301 216.8110 15.69766296  3661,6737.703,91.733,362.395,356.74,0.0
49149.0,STARLINK-3053,PAYLOAD,2021-10-29 20:00:01,15.69761989,0.0004217,69.9997,358.3817,292.3875,191.7176,-0.00057328,-0.00068146,0.0,0 STARLINK-3053,1 49149U 21082V   21302.83335648 -.00068146  00000-0 -57328-3 0  9993,2 49149  69.9997 358.3817 0004217 292.3875 191.7176 15.69761989  8486,6737.715,91.734,362.421,356.73900000000015,0.0
49149.0,STARLINK-3053,PAYLOAD,2021-10-29 22:00:01,15.69718857,0.0004215,69.9999,358.1475,291.0894,303.8064,0.00013122,0.00015464,0.0,0 STARLINK-3053,1 49149U 21082V   21302.91668981  .00015464  00000-0  13122-3 0  9998,2 49149  69.9999 358.1475 0004215 291.0894 303.8064 15.69718857  3664,6737.8380000000025,91.736,362.543,356.86300000000006,0.0
